[{"OBJECT_NAME":"STARLINK-5469","OBJECT_ID":"2023-021X","EPOCH":"2026-03-09T18:09:20.580480","MEAN_MOTION":14.98331595,"ECCENTRICITY":0.0003345,"INCLINATION":70.0017,"RA_OF_ASC_NODE":184.1969,"ARG_OF_PERICENTER":270.4714,"MEAN_ANOMALY":89.6062,"EPHEMERIS_TYPE":0,"CLASSIFICATION_TYPE":"U","NORAD_CAT_ID":55649,"ELEMENT_SET_NO":999,"REV_AT_EPOCH":16880,"BSTAR":1.2115723e-5,"MEAN_MOTION_DOT":5.2e-7,"MEAN_MOTION_DDOT":0},{"OBJECT_NAME":"SL-8 DEB","OBJECT_ID":"1971-114C","EPOCH":"2026-03-09T10:06:38.914272","MEAN_MOTION":14.97936297,"ECCENTRICITY":0.00069633,"INCLINATION":74.0033,"RA_OF_ASC_NODE":186.861,"ARG_OF_PERICENTER":298.1447,"MEAN_ANOMALY":61.9034,"EPHEMERIS_TYPE":0,"CLASSIFICATION_TYPE":"U","NORAD_CAT_ID":5778,"ELEMENT_SET_NO":999,"REV_AT_EPOCH":88447,"BSTAR":0.0010014796,"MEAN_MOTION_DOT":0.00011794,"MEAN_MOTION_DDOT":0}]
